STARLINK-5245           
1 54168U 22141M   26199.24000398  .00000462  00000+0  24150-4 0  9994
2 54168  53.1614 134.4618 0001264  90.2611 269.8537 15.35399900205613
STARLINK-5282           
1 54169U 22141N   26199.23830850 -.00000219  00000+0  46339-5 0  9993
2 54169  53.1615 134.4540 0001238  80.3680 279.7463 15.35408720205615
STARLINK-5155           
1 54170U 22141P   26199.21412071 -.00000355  00000+0  71885-6 0  9990
2 54170  53.1619 134.3040 0001296  94.9443 265.1708 15.35394267205618
STARLINK-5117           
1 54172U 22141R   26199.13729774  .00000397  00000+0  23414-4 0  9992
2 54172  53.1611 134.5365 0001993  85.5186 274.6044 15.33545511205603
STARLINK-5242           
1 54173U 22141S   26199.25002315  .00053958  00000+0  15987-2 0  9996
2 54173  53.1608 134.2252 0001096  68.7674  83.3680 15.34358996  5802
STARLINK-5248           
1 54174U 22141T   26199.25002315  .00021797  00000+0  10032-2 0  9999
2 54174  53.1589  81.9139 0000905  16.0208 239.1363 15.20275812  5797
STARLINK-5256           
1 54175U 22141U   26199.22673147  .00008469  00000+0  26183-3 0  9990
2 54175  53.1619 134.3814 0001604  86.0323 274.0863 15.34360526205615
STARLINK-5154           
1 54176U 22141V   26199.11530061  .00001003  00000+0  40834-4 0  9993
2 54176  53.1617 134.4030 0001358  84.6755 275.4403 15.34393000205601
STARLINK-5186           
1 54177U 22141W   26199.21200067 -.00000198  00000+0  52879-5 0  9993
2 54177  53.1624 134.2897 0001657  95.5897 264.5295 15.34385998205615
STARLINK-5164           
1 54178U 22141X   26199.14476020 -.00000075  00000+0  89450-5 0  9999
2 54178  53.1622 134.5618 0001873  52.2393 307.8779 15.34385559205609
STARLINK-5122           
1 54179U 22141Y   26199.19152876  .00000535  00000+0  26254-4 0  9997
2 54179  53.1613 134.1645 0001234  94.7925 265.3219 15.35398702205612
STARLINK-5227           
1 54181U 22141AA  26199.08660557  .00000698  00000+0  30913-4 0  9995
2 54181  53.1621 134.9274 0001210  89.6432 270.4710 15.35399091205592
STARLINK-5231           
1 54182U 22141AB  26198.97988486 -.00000602  00000+0 -19740-4 0  9999
2 54182  53.1603 108.5788 0001565  98.3678 261.7491 15.08829278205956
STARLINK-5239           
1 54183U 22141AC  26199.25002315  .00052052  00000+0  15424-2 0  9997
2 54183  53.1605 134.1815 0001358  70.7129 104.6635 15.34372128  5690
STARLINK-5162           
1 54184U 22141AD  26199.20957140  .00000456  00000+0  26449-4 0  9990
2 54184  53.1623 135.6671 0001275  88.0163 272.0984 15.31699070205598
STARLINK-5235           
1 54185U 22141AE  26199.08593261  .00000374  00000+0  22209-4 0  9996
2 54185  53.1620 134.9226 0001387  93.4589 266.6573 15.34389720205594
STARLINK-5240           
1 54187U 22141AG  26199.09336122  .00001099  00000+0  42419-4 0  9990
2 54187  53.1621 134.9759 0001447  86.1354 273.9814 15.35399738205594
STARLINK-5238           
1 54188U 22141AH  26199.25002315  .00085306  00000+0  38509-2 0  9999
2 54188  53.1592 127.4476 0000850  74.6471 232.6550 15.20264966  5702
STARLINK-5281           
1 54190U 22141AK  26199.03300966  .00036593  00000+0  22873-2 0  9992
2 54190  53.1595 128.8200 0002376 132.3259 227.7934 15.09126597205672
STARLINK-4619           
1 54191U 22141AL  26199.25002315  .00085581  00000+0  36612-2 0  9991
2 54191  53.1600 127.4740 0001033  18.2967 275.8136 15.22100622  5752
STARLINK-5268           
1 54192U 22141AM  26199.26099115  .00049016  00000+0  30438-2 0  9990
2 54192  53.1605 127.4041 0001532  85.9959 274.1208 15.09231010205719
STARLINK-5263           
1 54193U 22141AN  26199.29039064  .00055600  00000+0  34417-2 0  9998
2 54193  53.1598 127.5842 0000536 174.2879 185.8119 15.09287440205714
STARLINK-5271           
1 54194U 22141AP  26199.21714496  .00018036  00000+0  11442-2 0  9995
2 54194  53.1603 127.8379 0001266 109.9765 250.1364 15.08973321205706
STARLINK-5258           
1 54195U 22141AQ  26199.25002315  .00086432  00000+0  40434-2 0  9998
2 54195  53.1599 127.5093 0000620   6.6481 267.7244 15.19028234  5808
STARLINK-5237           
1 54196U 22141AR  26199.25002315  .00082360  00000+0  41335-2 0  9996
2 54196  53.1591 127.4267 0001132 358.5248 317.5380 15.16603760  5649
STARLINK-5246           
1 54198U 22141AT  26199.25002315  .00080851  00000+0  39527-2 0  9991
2 54198  53.1590 127.3478 0002120  53.5136 303.9767 15.17530823  5748
STARLINK-5244           
1 54199U 22141AU  26199.25002315  .00085618  00000+0  42717-2 0  9993
2 54199  53.1588 127.4772 0000584  66.1086 223.6142 15.16790102  5742
STARLINK-5250           
1 54200U 22141AV  26199.25002315  .00075455  00000+0  37964-2 0  9992
2 54200  53.1590 127.3250 0001462  40.1371 327.3891 15.16561998  5790
STARLINK-5199           
1 54201U 22141AW  26199.25002315  .00084072  00000+0  38069-2 0  9995
2 54201  53.1596 127.4520 0001909  73.3176 229.1257 15.20166932  5794
STARLINK-5205           
1 54202U 22141AX  26199.25002315  .00083263  00000+0  41731-2 0  9997
2 54202  53.1591 127.2270 0002630  91.3927 326.7374 15.16644434  5793
