OBJECT_NAME,OBJECT_ID,EPOCH,MEAN_MOTION,ECCENTRICITY,INCLINATION,RA_OF_ASC_NODE,ARG_OF_PERICENTER,MEAN_ANOMALY,EPHEMERIS_TYPE,CLASSIFICATION_TYPE,NORAD_CAT_ID,ELEMENT_SET_NO,REV_AT_EPOCH,BSTAR,MEAN_MOTION_DOT,MEAN_MOTION_DDOT
STARLINK-5245,2022-141M,2026-07-18T05:45:36.343872,15.35399900,.00012644,53.1614,134.4618,90.2611,269.8537,0,U,54168,999,20561,.24149699E-4,.462E-5,0
STARLINK-5282,2022-141N,2026-07-18T05:43:09.854400,15.35408720,.00012387,53.1615,134.4540,80.3680,279.7463,0,U,54169,999,20561,.4633891E-5,-.219E-5,0
STARLINK-5155,2022-141P,2026-07-18T05:08:20.029344,15.35394267,.00012962,53.1619,134.3040,94.9443,265.1708,0,U,54170,999,20561,.718848E-6,-.355E-5,0
STARLINK-5117,2022-141R,2026-07-18T03:17:42.524736,15.33545511,.00019936,53.1611,134.5365,85.5186,274.6044,0,U,54172,999,20560,.23413883E-4,.397E-5,0
STARLINK-5242,2022-141S,2026-07-18T06:00:02.000160,15.34358996,.00010969,53.1608,134.2252,68.7674,83.3680,0,U,54173,999,580,.15987221E-2,.53958E-3,0
STARLINK-5248,2022-141T,2026-07-18T06:00:02.000160,15.20275812,.00009057,53.1589,81.9139,16.0208,239.1363,0,U,54174,999,579,.10031984E-2,.21797E-3,0
STARLINK-5256,2022-141U,2026-07-18T05:26:29.599008,15.34360526,.00016047,53.1619,134.3814,86.0323,274.0863,0,U,54175,999,20561,.26182589E-3,.8469E-4,0
STARLINK-5154,2022-141V,2026-07-18T02:46:01.972704,15.34393000,.00013588,53.1617,134.4030,84.6755,275.4403,0,U,54176,999,20560,.4083404E-4,.1003E-4,0
STARLINK-5186,2022-141W,2026-07-18T05:05:16.857888,15.34385998,.00016577,53.1624,134.2897,95.5897,264.5295,0,U,54177,999,20561,.5287896E-5,-.198E-5,0
STARLINK-5164,2022-141X,2026-07-18T03:28:27.281280,15.34385559,.00018732,53.1622,134.5618,52.2393,307.8779,0,U,54178,999,20560,.8944979E-5,-.75E-6,0
STARLINK-5122,2022-141Y,2026-07-18T04:35:48.084864,15.35398702,.00012344,53.1613,134.1645,94.7925,265.3219,0,U,54179,999,20561,.26254221E-4,.535E-5,0
STARLINK-5227,2022-141AA,2026-07-18T02:04:42.721248,15.35399091,.000121,53.1621,134.9274,89.6432,270.4710,0,U,54181,999,20559,.30913117E-4,.698E-5,0
STARLINK-5231,2022-141AB,2026-07-17T23:31:02.051904,15.08829278,.00015653,53.1603,108.5788,98.3678,261.7491,0,U,54182,999,20595,-.19740396E-4,-.602E-5,0
STARLINK-5239,2022-141AC,2026-07-18T06:00:02.000160,15.34372128,.00013583,53.1605,134.1815,70.7129,104.6635,0,U,54183,999,569,.15423849E-2,.52052E-3,0
STARLINK-5162,2022-141AD,2026-07-18T05:01:46.968960,15.31699070,.00012755,53.1623,135.6671,88.0163,272.0984,0,U,54184,999,20559,.26449355E-4,.456E-5,0
STARLINK-5235,2022-141AE,2026-07-18T02:03:44.577504,15.34389720,.00013877,53.1620,134.9226,93.4589,266.6573,0,U,54185,999,20559,.22209291E-4,.374E-5,0
STARLINK-5240,2022-141AG,2026-07-18T02:14:26.409408,15.35399738,.00014471,53.1621,134.9759,86.1354,273.9814,0,U,54187,999,20559,.42418556E-4,.1099E-4,0
STARLINK-5238,2022-141AH,2026-07-18T06:00:02.000160,15.20264966,.000085,53.1592,127.4476,74.6471,232.6550,0,U,54188,999,570,.38509357E-2,.85306E-3,0
STARLINK-5281,2022-141AK,2026-07-18T00:47:32.034624,15.09126597,.0002376,53.1595,128.8200,132.3259,227.7934,0,U,54190,999,20567,.22872662E-2,.36593E-3,0
STARLINK-4619,2022-141AL,2026-07-18T06:00:02.000160,15.22100622,.00010336,53.1600,127.4740,18.2967,275.8136,0,U,54191,999,575,.36612369E-2,.85581E-3,0
STARLINK-5268,2022-141AM,2026-07-18T06:15:49.635360,15.09231010,.00015325,53.1605,127.4041,85.9959,274.1208,0,U,54192,999,20571,.30437653E-2,.49016E-3,0
STARLINK-5263,2022-141AN,2026-07-18T06:58:09.751296,15.09287440,.0000536,53.1598,127.5842,174.2879,185.8119,0,U,54193,999,20571,.34416934E-2,.556E-3,0
STARLINK-5271,2022-141AP,2026-07-18T05:12:41.324544,15.08973321,.00012668,53.1603,127.8379,109.9765,250.1364,0,U,54194,999,20570,.11442323E-2,.18036E-3,0
STARLINK-5258,2022-141AQ,2026-07-18T06:00:02.000160,15.19028234,.00006201,53.1599,127.5093,6.6481,267.7244,0,U,54195,999,580,.40433574E-2,.86432E-3,0
STARLINK-5237,2022-141AR,2026-07-18T06:00:02.000160,15.16603760,.00011328,53.1591,127.4267,358.5248,317.5380,0,U,54196,999,564,.41334872E-2,.8236E-3,0
STARLINK-5246,2022-141AT,2026-07-18T06:00:02.000160,15.17530823,.00021207,53.1590,127.3478,53.5136,303.9767,0,U,54198,999,574,.39527202E-2,.80851E-3,0
STARLINK-5244,2022-141AU,2026-07-18T06:00:02.000160,15.16790102,.00005842,53.1588,127.4772,66.1086,223.6142,0,U,54199,999,574,.42716585E-2,.85618E-3,0
STARLINK-5250,2022-141AV,2026-07-18T06:00:02.000160,15.16561998,.00014629,53.1590,127.3250,40.1371,327.3891,0,U,54200,999,579,.37963714E-2,.75455E-3,0
STARLINK-5199,2022-141AW,2026-07-18T06:00:02.000160,15.20166932,.00019096,53.1596,127.4520,73.3176,229.1257,0,U,54201,999,579,.38068824E-2,.84072E-3,0
STARLINK-5205,2022-141AX,2026-07-18T06:00:02.000160,15.16644434,.00026308,53.1591,127.2270,91.3927,326.7374,0,U,54202,999,579,.41731314E-2,.83263E-3,0
